start=new Date('2022-11-23T00:00:00.000Z').valueOf();
sats=[{"EPOCH":"2022-11-22T07:46:28.230240","RCS_SIZE":"LARGE","MEAN_MOTION":"15.08838250","COUNTRY_CODE":"US","OBJECT_NAME":"STARLINK-4002","LAUNCH_DATE":"2022-05-14","TLE_LINE1":"1 52612U 22052Q   22326.32393785  .00000395  00000-0  42922-4 0  9992","SEMIMAJOR_AXIS":"6917.886","PERIAPSIS":"537.780","DECAY_DATE":null,"MEAN_MOTION_DDOT":"0.0000000000000","INCLINATION":"53.2193","BSTAR":"0.00004292200000","REV_AT_EPOCH":"2919","MEAN_ANOMALY":"326.9065","PERIOD":"95.438","CENTER_NAME":"EARTH","OBJECT_TYPE":"PAYLOAD","ELEMENT_SET_NO":"999","GP_ID":"218473053","APOAPSIS":"541.722","NORAD_CAT_ID":"52612","RA_OF_ASC_NODE":"281.2503","REF_FRAME":"TEME","SITE":"AFETR","CLASSIFICATION_TYPE":"U","FILE":"3667274","ARG_OF_PERICENTER":"33.2106","OBJECT_ID":"2022-052Q","TLE_LINE2":"2 52612  53.2193 281.2503 0002849  33.2106 326.9065 15.08838250 29192","EPHEMERIS_TYPE":"0","MEAN_MOTION_DOT":"0.00000395","TIME_SYSTEM":"UTC","ECCENTRICITY":"0.00028490","MEAN_ELEMENT_THEORY":"SGP4"},{"MEAN_MOTION_DOT":"0.00010516","MEAN_ELEMENT_THEORY":"SGP4","ECCENTRICITY":"0.00020620","TIME_SYSTEM":"UTC","ARG_OF_PERICENTER":"48.1720","EPHEMERIS_TYPE":"0","TLE_LINE2":"2 52613  53.2152 268.9283 0002062  48.1720 311.9448 15.08862238 29405","OBJECT_ID":"2022-052R","FILE":"3667517","SITE":"AFETR","CLASSIFICATION_TYPE":"U","REF_FRAME":"TEME","APOAPSIS":"541.104","GP_ID":"218504929","ELEMENT_SET_NO":"999","OBJECT_TYPE":"PAYLOAD","RA_OF_ASC_NODE":"268.9283","NORAD_CAT_ID":"52613","DECAY_DATE":null,"PERIAPSIS":"538.251","SEMIMAJOR_AXIS":"6917.812","CENTER_NAME":"EARTH","MEAN_ANOMALY":"311.9448","PERIOD":"95.436","MEAN_MOTION_DDOT":"0.0000000000000","BSTAR":"0.00067741000000","REV_AT_EPOCH":"2940","INCLINATION":"53.2152","COUNTRY_CODE":"US","TLE_LINE1":"1 52613U 22052R   22326.83637056  .00010516  00000-0  67741-3 0  9992","OBJECT_NAME":"STARLINK-3921","LAUNCH_DATE":"2022-05-14","EPOCH":"2022-11-22T20:04:22.416384","MEAN_MOTION":"15.08862238","RCS_SIZE":"LARGE"},{"FILE":"3667517","SITE":"AFETR","CLASSIFICATION_TYPE":"U","REF_FRAME":"TEME","RA_OF_ASC_NODE":"269.8135","NORAD_CAT_ID":"52614","APOAPSIS":"541.274","ELEMENT_SET_NO":"999","GP_ID":"218505679","OBJECT_TYPE":"PAYLOAD","MEAN_ELEMENT_THEORY":"SGP4","ECCENTRICITY":"0.00021990","TIME_SYSTEM":"UTC","MEAN_MOTION_DOT":"0.00001439","EPHEMERIS_TYPE":"0","TLE_LINE2":"2 52614  53.2195 269.8135 0002199  34.7313 325.3823 15.08837427 29373","OBJECT_ID":"2022-052S","ARG_OF_PERICENTER":"34.7313","RCS_SIZE":"LARGE","MEAN_MOTION":"15.08837427","EPOCH":"2022-11-22T15:23:31.160832","CENTER_NAME":"EARTH","MEAN_ANOMALY":"325.3823","PERIOD":"95.438","MEAN_MOTION_DDOT":"0.0000000000000","BSTAR":"0.00010851000000","REV_AT_EPOCH":"2937","INCLINATION":"53.2195","DECAY_DATE":null,"PERIAPSIS":"538.232","SEMIMAJOR_AXIS":"6917.888","TLE_LINE1":"1 52614U 22052S   22326.64133288  .00001439  00000-0  10851-3 0  9994","OBJECT_NAME":"STARLINK-3982","LAUNCH_DATE":"2022-05-14","COUNTRY_CODE":"US"},{"BSTAR":"0.00035087000000","MEAN_MOTION_DDOT":"0.0000000000000","REV_AT_EPOCH":"2910","INCLINATION":"53.2176","CENTER_NAME":"EARTH","PERIOD":"95.437","MEAN_ANOMALY":"327.6791","PERIAPSIS":"538.007","SEMIMAJOR_AXIS":"6917.849","DECAY_DATE":null,"TLE_LINE1":"1 52615U 22052T   22326.29219122  .00005302  00000-0  35087-3 0  9999","OBJECT_NAME":"STARLINK-4011","LAUNCH_DATE":"2022-05-14","COUNTRY_CODE":"US","RCS_SIZE":"LARGE","MEAN_MOTION":"15.08850252","EPOCH":"2022-11-22T07:00:45.321408","TIME_SYSTEM":"UTC","MEAN_ELEMENT_THEORY":"SGP4","ECCENTRICITY":"0.00024670","MEAN_MOTION_DOT":"0.00005302","TLE_LINE2":"2 52615  53.2176 286.3766 0002467  32.4353 327.6791 15.08850252 29105","OBJECT_ID":"2022-052T","EPHEMERIS_TYPE":"0","ARG_OF_PERICENTER":"32.4353","REF_FRAME":"TEME","FILE":"3667274","SITE":"AFETR","CLASSIFICATION_TYPE":"U","NORAD_CAT_ID":"52615","RA_OF_ASC_NODE":"286.3766","GP_ID":"218472802","ELEMENT_SET_NO":"999","OBJECT_TYPE":"PAYLOAD","APOAPSIS":"541.421"},{"MEAN_MOTION_DOT":"0.00002220","TIME_SYSTEM":"UTC","MEAN_ELEMENT_THEORY":"SGP4","ECCENTRICITY":"0.00026950","ARG_OF_PERICENTER":"32.8217","TLE_LINE2":"2 52616  53.2166 268.6592 0002695  32.8217 327.2942 15.08843718 29418","OBJECT_ID":"2022-052U","EPHEMERIS_TYPE":"0","REF_FRAME":"TEME","FILE":"3667517","SITE":"AFETR","CLASSIFICATION_TYPE":"U","GP_ID":"218504677","ELEMENT_SET_NO":"999","OBJECT_TYPE":"PAYLOAD","APOAPSIS":"541.598","NORAD_CAT_ID":"52616","RA_OF_ASC_NODE":"268.6592","PERIAPSIS":"537.870","SEMIMAJOR_AXIS":"6917.869","DECAY_DATE":null,"INCLINATION":"53.2166","MEAN_MOTION_DDOT":"0.0000000000000","BSTAR":"0.00015751000000","REV_AT_EPOCH":"2941","CENTER_NAME":"EARTH","MEAN_ANOMALY":"327.2942","PERIOD":"95.437","COUNTRY_CODE":"US","TLE_LINE1":"1 52616U 22052U   22326.89893449  .00002220  00000-0  15751-3 0  9998","LAUNCH_DATE":"2022-05-14","OBJECT_NAME":"STARLINK-4015","EPOCH":"2022-11-22T21:34:27.939936","MEAN_MOTION":"15.08843718","RCS_SIZE":"LARGE"},{"REF_FRAME":"TEME","FILE":"3667274","SITE":"AFETR","CLASSIFICATION_TYPE":"U","NORAD_CAT_ID":"52617","RA_OF_ASC_NODE":"271.6576","GP_ID":"218473804","ELEMENT_SET_NO":"999","OBJECT_TYPE":"PAYLOAD","APOAPSIS":"541.386","TIME_SYSTEM":"UTC","ECCENTRICITY":"0.00024060","MEAN_ELEMENT_THEORY":"SGP4","MEAN_MOTION_DOT":"0.00004272","TLE_LINE2":"2 52617  53.2171 271.6576 0002406  38.9642 321.1523 15.08847864 29302","OBJECT_ID":"2022-052V","EPHEMERIS_TYPE":"0","ARG_OF_PERICENTER":"38.9642","RCS_SIZE":"LARGE","MEAN_MOTION":"15.08847864","EPOCH":"2022-11-22T05:30:00.800352","MEAN_MOTION_DDOT":"0.0000000000000","BSTAR":"0.00028631000000","REV_AT_EPOCH":"2930","INCLINATION":"53.2171","CENTER_NAME":"EARTH","MEAN_ANOMALY":"321.1523","PERIOD":"95.437","PERIAPSIS":"538.057","SEMIMAJOR_AXIS":"6917.856","DECAY_DATE":null,"TLE_LINE1":"1 52617U 22052V   22326.22917593  .00004272  00000-0  28631-3 0  9993","OBJECT_NAME":"STARLINK-3996","LAUNCH_DATE":"2022-05-14","COUNTRY_CODE":"US"},{"ARG_OF_PERICENTER":"39.1691","TLE_LINE2":"2 52618  53.2177 270.1693 0002165  39.1691 320.9458 15.08831336 29358","OBJECT_ID":"2022-052W","EPHEMERIS_TYPE":"0","MEAN_MOTION_DOT":"0.00001888","TIME_SYSTEM":"UTC","MEAN_ELEMENT_THEORY":"SGP4","ECCENTRICITY":"0.00021650","GP_ID":"218505180","ELEMENT_SET_NO":"999","OBJECT_TYPE":"PAYLOAD","APOAPSIS":"541.270","NORAD_CAT_ID":"52618","RA_OF_ASC_NODE":"270.1693","REF_FRAME":"TEME","FILE":"3667517","SITE":"AFETR","CLASSIFICATION_TYPE":"U","COUNTRY_CODE":"US","TLE_LINE1":"1 52618U 22052W   22326.56405405  .00001888  00000-0  13673-3 0  9995","LAUNCH_DATE":"2022-05-14","OBJECT_NAME":"STARLINK-3983","PERIAPSIS":"538.274","SEMIMAJOR_AXIS":"6917.907","DECAY_DATE":null,"REV_AT_EPOCH":"2935","MEAN_MOTION_DDOT":"0.0000000000000","BSTAR":"0.00013673000000","INCLINATION":"53.2177","CENTER_NAME":"EARTH","PERIOD":"95.438","MEAN_ANOMALY":"320.9458","EPOCH":"2022-11-22T13:32:14.269920","MEAN_MOTION":"15.08831336","RCS_SIZE":"LARGE"},{"GP_ID":"218472303","ELEMENT_SET_NO":"999","OBJECT_TYPE":"PAYLOAD","APOAPSIS":"541.604","NORAD_CAT_ID":"52619","RA_OF_ASC_NODE":"271.3906","REF_FRAME":"TEME","FILE":"3667274","SITE":"AFETR","CLASSIFICATION_TYPE":"U","ARG_OF_PERICENTER":"29.5176","TLE_LINE2":"2 52619  53.2188 271.3906 0002657  29.5176 330.5966 15.08833127 29315","OBJECT_ID":"2022-052X","EPHEMERIS_TYPE":"0","MEAN_MOTION_DOT":"0.00000741","TIME_SYSTEM":"UTC","MEAN_ELEMENT_THEORY":"SGP4","ECCENTRICITY":"0.00026570","EPOCH":"2022-11-22T07:01:28.765920","RCS_SIZE":"LARGE","MEAN_MOTION":"15.08833127","COUNTRY_CODE":"US","TLE_LINE1":"1 52619U 22052X   22326.29269405  .00000741  00000-0  64677-4 0  9992","OBJECT_NAME":"STARLINK-3741","LAUNCH_DATE":"2022-05-14","PERIAPSIS":"537.928","SEMIMAJOR_AXIS":"6917.901","DECAY_DATE":null,"INCLINATION":"53.2188","MEAN_MOTION_DDOT":"0.0000000000000","BSTAR":"0.00006467700000","REV_AT_EPOCH":"2931","CENTER_NAME":"EARTH","MEAN_ANOMALY":"330.5966","PERIOD":"95.438"},{"MEAN_MOTION":"15.08851106","RCS_SIZE":"LARGE","EPOCH":"2022-11-22T10:06:13.800384","TLE_LINE1":"1 52620U 22052Y   22326.42099306  .00007827  00000-0  50917-3 0  9993","OBJECT_NAME":"STARLINK-3975","LAUNCH_DATE":"2022-05-14","COUNTRY_CODE":"US","MEAN_MOTION_DDOT":"0.0000000000000","BSTAR":"0.00050917000000","REV_AT_EPOCH":"2912","INCLINATION":"53.2166","CENTER_NAME":"EARTH","PERIOD":"95.437","MEAN_ANOMALY":"326.0868","PERIAPSIS":"538.035","SEMIMAJOR_AXIS":"6917.846","DECAY_DATE":null,"NORAD_CAT_ID":"52620","RA_OF_ASC_NODE":"285.8016","ELEMENT_SET_NO":"999","GP_ID":"218473054","OBJECT_TYPE":"PAYLOAD","APOAPSIS":"541.388","REF_FRAME":"TEME","FILE":"3667274","CLASSIFICATION_TYPE":"U","SITE":"AFETR","TLE_LINE2":"2 52620  53.2166 285.8016 0002424  34.0279 326.0868 15.08851106 29129","OBJECT_ID":"2022-052Y","EPHEMERIS_TYPE":"0","ARG_OF_PERICENTER":"34.0279","TIME_SYSTEM":"UTC","ECCENTRICITY":"0.00024240","MEAN_ELEMENT_THEORY":"SGP4","MEAN_MOTION_DOT":"0.00007827"},{"CENTER_NAME":"EARTH","PERIOD":"95.438","MEAN_ANOMALY":"323.0741","MEAN_MOTION_DDOT":"0.0000000000000","BSTAR":"0.00001336700000","REV_AT_EPOCH":"2931","INCLINATION":"53.2183","DECAY_DATE":null,"PERIAPSIS":"538.034","SEMIMAJOR_AXIS":"6917.884","TLE_LINE1":"1 52621U 22052Z   22326.28437240 -.00000076  00000-0  13367-4 0  9990","LAUNCH_DATE":"2022-05-14","OBJECT_NAME":"STARLINK-3984","COUNTRY_CODE":"US","MEAN_MOTION":"15.08838763","RCS_SIZE":"LARGE","EPOCH":"2022-11-22T06:49:29.775360","MEAN_ELEMENT_THEORY":"SGP4","ECCENTRICITY":"0.00024790","TIME_SYSTEM":"UTC","MEAN_MOTION_DOT":"-0.00000076","EPHEMERIS_TYPE":"0","TLE_LINE2":"2 52621  53.2183 271.4262 0002479  37.0422 323.0741 15.08838763 29318","OBJECT_ID":"2022-052Z","ARG_OF_PERICENTER":"37.0422","FILE":"3667274","CLASSIFICATION_TYPE":"U","SITE":"AFETR","REF_FRAME":"TEME","RA_OF_ASC_NODE":"271.4262","NORAD_CAT_ID":"52621","APOAPSIS":"541.464","ELEMENT_SET_NO":"999","GP_ID":"218473305","OBJECT_TYPE":"PAYLOAD"}];
